IP,regionName,city,country,lat,lon,isp
43.134.37.211,North West,Singapore,Singapore,1.352,103.8198,Shenzhen Tencent Computer Systems Company Limited
150.109.13.194,Central Singapore,Singapore,Singapore,1.28423,103.852,Aceville Pte.ltd
217.160.152.33,Baden-Wurttemberg,Karlsruhe,Germany,48.9921,8.40221,IONOS SE
,,,,,,
208.80.194.41,California,Los Angeles,United States,34.0522,-118.244,"Forcepoint, LLC"
52.70.202.232,Virginia,Ashburn,United States,39.0438,-77.4874,"Amazon.com, Inc."
43.133.38.182,North West,Singapore,Singapore,1.352,103.8198,Aceville Pte.ltd
192.42.116.178,North Holland,Amsterdam,The Netherlands,52.3676,4.90414,Surf B.V.
159.223.58.70,South West,Singapore,Singapore,1.32123,103.695,"DigitalOcean, LLC"
40.94.25.132,"Washington, D.C.",Washington,United States,38.7134,-78.159,Microsoft Corporation
170.106.104.42,California,San Jose,United States,37.3382,-121.886,Tencent Cloud Computing (Beijing) Co
209.127.253.142,New Jersey,Piscataway,United States,40.5548,-74.4642,B2 Net Solutions Inc.
40.94.25.212,"Washington, D.C.",Washington,United States,38.7134,-78.159,Microsoft Corporation
43.163.3.58,Central Singapore,Singapore,Singapore,1.28423,103.852,Shenzhen Tencent Computer Systems Company Limited
43.128.100.220,North West,Singapore,Singapore,1.352,103.8198,Aceville Pte.ltd
43.159.128.149,California,Santa Clara,United States,37.3541,-121.9552,Shenzhen Tencent Computer Systems Company Limited
146.70.192.166,Central Singapore,Singapore,Singapore,1.29645,103.791,M247 Europe SRL
159.203.12.43,Ontario,Toronto,Canada,43.6547,-79.3623,"DigitalOcean, LLC"
135.148.195.13,Virginia,Reston,United States,38.958,-77.3592,OVH SAS
40.94.25.220,"Washington, D.C.",Washington,United States,38.7134,-78.159,Microsoft Corporation
43.131.44.218,Hesse,Frankfurt,Germany,50.1109,8.6821,Aceville Pte.ltd
65.154.226.166,California,Santa Clara,United States,37.3833,-121.983,Palo Alto Networks
170.64.173.144,New South Wales,Sydney,Australia,-33.8715,151.2006,"DigitalOcean, LLC"
192.42.116.24,North Holland,Amsterdam,The Netherlands,52.3817,4.89021,Surf B.V.
65.154.226.169,California,Santa Clara,United States,37.3833,-121.983,Palo Alto Networks
124.222.8.47,Guangdong,Shenzhen,China,22.5431,114.058,China Internet Network Information Center
185.220.101.35,Brandenburg,Brandenburg,Germany,52.6171,13.1207,Stiftung Erneuerbare Freiheit
34.46.149.96,Iowa,Council Bluffs,United States,41.2619,-95.8608,Google LLC
128.90.170.5,Mazovia,Warsaw,Poland,52.1828,20.9846,"Powerhouse Management, Inc."
106.54.200.247,Guangdong,Shenzhen,China,22.5431,114.058,Shenzhen Tencent Computer Systems Company Limited
167.172.89.233,South West,Singapore,Singapore,1.32123,103.695,"DigitalOcean, LLC"
49.51.206.130,California,San Jose,United States,37.3382,-121.886,OPHL
135.148.195.8,Virginia,Reston,United States,38.958,-77.3592,OVH SAS
135.148.195.4,Virginia,Reston,United States,38.958,-77.3592,OVH SAS
111.7.100.25,Guangdong,Shenzhen,China,22.5429,114.06,China Mobile communications corporation
139.59.42.168,Karnataka,Bengaluru,India,12.9634,77.5855,"DigitalOcean, LLC"
3.143.143.220,Ohio,Dublin,United States,40.0992,-83.1141,"Amazon.com, Inc."
40.94.25.148,"Washington, D.C.",Washington,United States,38.7134,-78.159,Microsoft Corporation
128.90.157.31,Madrid,Madrid,Spain,40.4299,-3.6691,"Powerhouse Management, Inc."
138.197.18.35,New Jersey,Clifton,United States,40.8364,-74.1403,"DigitalOcean, LLC"
43.155.183.138,Seoul,Seoul,South Korea,37.5665,126.9779,Shenzhen Tencent Computer Systems Company Limited
18.216.49.66,Ohio,Dublin,United States,40.0992,-83.1141,"Amazon.com, Inc."
43.130.47.136,California,Santa Clara,United States,37.3541,-121.9552,Shenzhen Tencent Computer Systems Company Limited
191.96.227.244,New York,New York,United States,40.7123,-74.0068,Cogent Communications
209.127.253.127,New Jersey,Piscataway,United States,40.5548,-74.4642,B2 Net Solutions Inc.
54.221.27.70,Virginia,Ashburn,United States,39.0438,-77.4874,Amazon Technologies Inc.
104.248.153.196,Central Singapore,Singapore,Singapore,1.28967,103.85,"DigitalOcean, LLC"
34.136.46.40,Iowa,Council Bluffs,United States,41.2619,-95.8608,Google LLC
135.148.195.14,Virginia,Reston,United States,38.958,-77.3592,OVH SAS
42.83.147.42,Beijing,Beijing,China,39.9042,116.407,CRITICAL
8.138.110.149,Guangdong,Guangzhou,China,23.1181,113.2539,"Hangzhou Alibaba Advertising Co., Ltd."
43.130.32.224,California,Santa Clara,United States,37.3541,-121.9552,Shenzhen Tencent Computer Systems Company Limited
103.216.223.206,South West,Singapore,Singapore,1.31667,103.75,Host Universal Pty Ltd
35.229.124.200,South Carolina,North Charleston,United States,32.8771,-80.013,Google LLC
42.83.147.55,Beijing,Beijing,China,39.9042,116.407,CRITICAL
76.126.1.236,California,Santa Cruz,United States,36.9689,-121.9903,"Comcast Cable Communications, LLC"
66.249.70.97,California,Mountain View,United States,37.422,-122.084,Google LLC
74.125.151.97,California,Mountain View,United States,37.422,-122.084,Google LLC
43.155.138.79,Seoul,Seoul,South Korea,37.5665,126.9779,Shenzhen Tencent Computer Systems Company Limited
34.46.7.110,Iowa,Council Bluffs,United States,41.2619,-95.8608,Google LLC
167.99.194.191,England,Slough,United Kingdom,51.5368,-0.6718,"DigitalOcean, LLC"
93.158.90.71,Södermanland County,Nyköping,Sweden,58.756,17.0095,GlobalConnect AB
66.249.70.96,California,Mountain View,United States,37.422,-122.084,Google LLC
15.204.194.30,Virginia,Reston,United States,38.9609,-77.3429,OVH SAS
67.205.153.146,New Jersey,North Bergen,United States,40.793,-74.0247,"DigitalOcean, LLC"
185.196.0.21,Kuala Lumpur,Kuala Lumpur,Malaysia,3.139,101.6868,Cyberzone S.A.
172.105.130.66,Hesse,Frankfurt am Main,Germany,50.1187,8.6842,Akamai Technologies
43.163.6.124,Central Singapore,Singapore,Singapore,1.28423,103.852,Shenzhen Tencent Computer Systems Company Limited
40.94.25.144,"Washington, D.C.",Washington,United States,38.7134,-78.159,Microsoft Corporation
150.158.45.24,Shanghai,Shanghai,China,31.2304,121.474,Shenzhen Tencent Computer Systems Company Limited
64.227.154.69,Karnataka,Bengaluru,India,12.9634,77.5855,"DigitalOcean, LLC"
208.80.194.42,California,Los Angeles,United States,34.0522,-118.244,"Forcepoint, LLC"
43.163.8.36,Beijing,Haidian,China,39.9786,116.302,Shenzhen Tencent Computer Systems Company Limited
43.128.100.206,North West,Singapore,Singapore,1.352,103.8198,Aceville Pte.ltd
49.235.189.18,Shanghai,Shanghai,China,31.2304,121.474,Shenzhen Tencent Computer Systems Company Limited
138.197.78.226,New Jersey,Clifton,United States,40.8364,-74.1403,"DigitalOcean, LLC"
35.184.222.53,Iowa,Council Bluffs,United States,41.2619,-95.8608,Google LLC
152.42.174.18,South West,Singapore,Singapore,1.32123,103.695,"DigitalOcean, LLC"
18.144.61.134,California,San Jose,United States,37.3394,-121.895,"Amazon.com, Inc."
40.94.25.145,"Washington, D.C.",Washington,United States,38.7134,-78.159,Microsoft Corporation
40.94.25.176,"Washington, D.C.",Washington,United States,38.7134,-78.159,Microsoft Corporation
129.226.146.179,North West,Singapore,Singapore,1.352,103.8198,Tencent Cloud Computing (Beijing) Co
43.131.62.4,Hesse,Frankfurt,Germany,50.1109,8.6821,Aceville Pte.ltd
185.196.0.9,Kuala Lumpur,Kuala Lumpur,Malaysia,3.139,101.6868,Cyberzone S.A.
165.154.24.92,Kowloon,Hong Kong,Hong Kong,22.3193,114.169,UCLOUD INFORMATION TECHNOLOGY (HK) LIMITED
146.70.192.182,Central Singapore,Singapore,Singapore,1.28967,103.85,M247 Europe SRL
40.94.25.163,"Washington, D.C.",Washington,United States,38.7134,-78.159,Microsoft Corporation
43.134.66.205,North West,Singapore,Singapore,1.352,103.8198,Shenzhen Tencent Computer Systems Company Limited
43.163.8.148,Beijing,Haidian,China,39.9786,116.302,Shenzhen Tencent Computer Systems Company Limited
137.184.113.33,California,Santa Clara,United States,37.3931,-121.962,"DigitalOcean, LLC"
205.169.39.106,Texas,Dallas,United States,32.7767,-96.797,"CenturyLink Communications, LLC"
66.249.70.98,California,Mountain View,United States,37.422,-122.084,Google LLC
40.121.60.124,Virginia,Boydton,United States,36.677696,-78.37471,Microsoft Corporation
43.135.166.178,California,Santa Clara,United States,37.3541,-121.9552,Shenzhen Tencent Computer Systems Company Limited
123.60.68.42,Shanghai,Shanghai,China,31.2304,121.4737,Huawei Cloud Service data center
111.7.100.24,Guangdong,Shenzhen,China,22.5429,114.06,China Mobile communications corporation
40.94.25.226,"Washington, D.C.",Washington,United States,38.7134,-78.159,Microsoft Corporation
43.135.149.154,California,Santa Clara,United States,37.3541,-121.9552,Shenzhen Tencent Computer Systems Company Limited
40.94.25.216,"Washington, D.C.",Washington,United States,38.7134,-78.159,Microsoft Corporation
40.94.25.136,"Washington, D.C.",Washington,United States,38.7134,-78.159,Microsoft Corporation
134.209.87.227,North Holland,Amsterdam,The Netherlands,52.352,4.9392,"DigitalOcean, LLC"
40.94.25.219,"Washington, D.C.",Washington,United States,38.7134,-78.159,Microsoft Corporation
40.94.25.211,"Washington, D.C.",Washington,United States,38.7134,-78.159,Microsoft Corporation
5.196.160.191,Hauts-de-France,Roubaix,France,50.6916,3.20151,OVH SAS
104.198.141.125,Iowa,Council Bluffs,United States,41.2619,-95.8608,Google LLC
206.204.28.215,California,San Francisco,United States,37.7749,-122.419,HostRoyale Technologies Pvt Ltd
113.219.218.197,Shanghai,Shanghai,China,31.2222,121.4581,"No.293, Wanbao Avenue"
40.94.25.217,"Washington, D.C.",Washington,United States,38.7134,-78.159,Microsoft Corporation
170.106.82.193,California,San Jose,United States,37.3382,-121.886,Tencent Cloud Computing (Beijing) Co
135.148.195.7,Virginia,Reston,United States,38.958,-77.3592,OVH SAS
74.125.151.98,California,Mountain View,United States,37.422,-122.084,Google LLC
152.42.194.226,South West,Singapore,Singapore,1.32123,103.695,"DigitalOcean, LLC"
150.109.253.34,Seoul,Seoul,South Korea,37.5665,126.9779,Aceville Pte.ltd
170.106.101.31,California,San Jose,United States,37.3382,-121.886,Tencent Cloud Computing (Beijing) Co
87.236.176.215,England,Leeds,United Kingdom,53.8008,-1.54908,Constantine Cybersecurity Ltd.
73.92.53.170,California,Walnut Creek,United States,37.9208,-122.0182,Comcast Cable Communications
43.130.31.48,California,Santa Clara,United States,37.3541,-121.9552,Shenzhen Tencent Computer Systems Company Limited
103.92.44.147,Odisha,Brahmapur,India,19.3075,84.7931,Wefe Telecom And Cctv Services Private Limited
74.125.151.96,California,Mountain View,United States,37.422,-122.084,Google LLC
52.209.78.236,Leinster,Dublin,Ireland,53.3498,-6.26031,"Amazon.com, Inc."
34.72.176.129,Iowa,Council Bluffs,United States,41.2619,-95.8608,Google LLC
43.155.160.173,Seoul,Seoul,South Korea,37.5665,126.9779,Shenzhen Tencent Computer Systems Company Limited
40.94.25.197,"Washington, D.C.",Washington,United States,38.7134,-78.159,Microsoft Corporation
35.245.143.233,"Washington, D.C.",Washington,United States,38.9071,-77.0368,Google LLC
206.189.157.103,Central Singapore,Singapore,Singapore,1.28967,103.85,"DigitalOcean, LLC"
43.133.77.230,Seoul,Seoul,South Korea,37.5665,126.9779,Shenzhen Tencent Computer Systems Company Limited
180.158.68.147,Shanghai,Shanghai,China,31.2222,121.4581,China Telecom (Group)
40.94.25.156,"Washington, D.C.",Washington,United States,38.7134,-78.159,Microsoft Corporation
40.94.25.194,"Washington, D.C.",Washington,United States,38.7134,-78.159,Microsoft Corporation
23.91.97.87,Kowloon,Hong Kong,Hong Kong,22.3193,114.169,Zenlayer Inc
135.148.195.9,Virginia,Reston,United States,38.958,-77.3592,OVH SAS
135.148.195.10,Virginia,Reston,United States,38.958,-77.3592,OVH SAS
194.5.48.10,Tokyo,Tokyo,Japan,35.6893,139.6899,Ipxo Limited
170.106.171.77,California,Santa Clara,United States,37.353,-121.9543,Shenzhen Tencent Computer Systems Company Limited
185.196.0.24,Kuala Lumpur,Kuala Lumpur,Malaysia,3.139,101.6868,Cyberzone S.A.
150.109.16.20,Central Singapore,Singapore,Singapore,1.28423,103.852,Aceville Pte.ltd
134.122.45.185,Ontario,Toronto,Canada,43.6547,-79.3623,"DigitalOcean, LLC"
40.94.25.159,"Washington, D.C.",Washington,United States,38.7134,-78.159,Microsoft Corporation
43.163.6.35,Central Singapore,Singapore,Singapore,1.28423,103.852,Shenzhen Tencent Computer Systems Company Limited
18.221.205.212,Ohio,Dublin,United States,40.0992,-83.1141,"Amazon.com, Inc."
34.171.104.253,Iowa,Council Bluffs,United States,41.2619,-95.8608,Google LLC
18.225.25.214,Ohio,Dublin,United States,40.0992,-83.1141,"Amazon.com, Inc."
35.171.144.152,Virginia,Ashburn,United States,39.0438,-77.4874,"Amazon.com, Inc."
40.94.25.147,"Washington, D.C.",Washington,United States,38.7134,-78.159,Microsoft Corporation
182.43.70.143,Guizhou,Guiyang,China,26.58,106.7223,Cloud Computing Corporation
178.254.24.91,Land Berlin,Berlin,Germany,52.5233,13.3426,BLU-VH
49.51.179.103,California,Los Angeles,United States,34.0522,-118.2436,OPHL
43.159.128.172,California,Santa Clara,United States,37.3541,-121.9552,Shenzhen Tencent Computer Systems Company Limited
40.94.25.193,"Washington, D.C.",Washington,United States,38.7134,-78.159,Microsoft Corporation
40.94.25.180,"Washington, D.C.",Washington,United States,38.7134,-78.159,Microsoft Corporation
3.19.74.154,Ohio,Dublin,United States,40.0992,-83.1141,"Amazon.com, Inc."
103.218.242.174,Kowloon,Hong Kong,Hong Kong,22.3193,114.169,UCLOUD INFORMATION TECHNOLOGY (HK) LIMITED
43.130.37.62,California,Santa Clara,United States,37.3541,-121.9552,Shenzhen Tencent Computer Systems Company Limited
